NORAD_CAT_ID,OBJECT_NAME,OBJECT_TYPE,EPOCH,MEAN_MOTION,ECCENTRICITY,INCLINATION,RA_OF_ASC_NODE,ARG_OF_PERICENTER,MEAN_ANOMALY,BSTAR,MEAN_MOTION_DOT,MEAN_MOTION_DDOT,TLE_LINE0,TLE_LINE1,TLE_LINE2,SEMIMAJOR_AXIS,PERIOD,APOGEE,PERIGEE,DECAYED
50822.0,STARLINK-3343,PAYLOAD,2022-03-28 14:00:01,15.33766341,0.0001808,53.2175,164.4345,36.5407,54.8472,-0.023517,-0.00718967,0.0,0 STARLINK-3343,1 50822U 22001V   22087.58335648 -.00718967  00000-0 -23517-1 0  9992,2 50822  53.2175 164.4345 0001808  36.5407  54.8472 15.33766341  3665,6842.724,93.887,465.826,463.352,0.0
50822.0,STARLINK-3343,PAYLOAD,2022-03-28 22:00:00,15.33256189,0.0001629,53.2174,162.8783,44.103,88.4565,-0.023871,-0.0071809,0.0,0 STARLINK-3343,1 50822U 22001V   22087.91667824 -.00718090  00000-0 -23871-1 0  9993,2 50822  53.2174 162.8783 0001629  44.1030  88.4565 15.33256189  3659,6844.2419999999975,93.918,467.222,464.992,0.0
50822.0,STARLINK-3343,PAYLOAD,2022-03-29 04:00:00,15.32872652,0.0001626999999999,53.2174,161.7121,40.9375,32.1468,-0.0241,-0.00716356,0.0,0 STARLINK-3343,1 50822U 22001V   22088.16667824 -.00716356  00000-0 -24100-1 0  9990,2 50822  53.2174 161.7121 0001627  40.9375  32.1468 15.32872652 14015,6845.384,93.941,468.362,466.135,0.0
50822.0,STARLINK-3343,PAYLOAD,2022-03-29 14:00:01,15.321099300000002,0.0001849,53.2167,159.7751,40.7752,172.4902,-0.019061,-0.00556969,0.0,0 STARLINK-3343,1 50822U 22001V   22088.58334491 -.00556969  00000-0 -19061-1 0  9999,2 50822  53.2167 159.7751 0001849  40.7752 172.4902 15.32109930  3624,6847.655,93.988,470.786,468.254,0.0
50822.0,STARLINK-3343,PAYLOAD,2022-03-29 22:00:00,15.31648728,0.0001808,53.2168,158.2226,38.8838,213.7419,-0.021169,-0.00612613,0.0,0 STARLINK-3343,1 50822U 22001V   22088.91667824 -.00612613  00000-0 -21169-1 0  9996,2 50822  53.2168 158.2226 0001808  38.8838 213.7419 15.31648728  3628,6849.03,94.016,472.133,469.657,0.0
50822.0,STARLINK-3343,PAYLOAD,2022-03-30 02:00:01,15.314712300000002,0.000178,53.2173,157.4454,37.37,54.68600000000001,-0.02526,-0.00718247,0.0,0 STARLINK-3343,1 50822U 22001V   22089.08334491 -.00718247  00000-0 -25260-1 0  9992,2 50822  53.2173 157.4454 0001780  37.3700  54.6860 15.31471230 14153,6849.559,94.027,472.643,470.205,0.0
50822.0,STARLINK-3343,PAYLOAD,2022-03-30 14:00:01,15.30608778,0.0001674,53.217,155.1252,49.6164,280.0378,-0.020849,-0.00585803,0.0,0 STARLINK-3343,1 50822U 22001V   22089.58335648 -.00585803  00000-0 -20849-1 0  9990,2 50822  53.2170 155.1252 0001674  49.6164 280.0378 15.30608778  3631,6852.132,94.08,475.144,472.85,0.0
50822.0,STARLINK-3343,PAYLOAD,2022-03-30 22:00:00,15.30196739,0.0001518,53.2175,153.5747,42.6693,324.4305,-0.026316,-0.00718944,0.0,0 STARLINK-3343,1 50822U 22001V   22089.91667824 -.00718944  00000-0 -26316-1 0  9990,2 50822  53.2175 153.5747 0001518  42.6693 324.4305 15.30196739  3681,6853.361999999999,94.106,476.267,474.186,0.0
50822.0,STARLINK-3343,PAYLOAD,2022-03-31 04:00:00,15.29812336,0.0001745,53.2175,152.4143,38.7749,266.0919,-0.026454,-0.00714519,0.0,0 STARLINK-3343,1 50822U 22001V   22090.16667824 -.00714519  00000-0 -26454-1 0  9996,2 50822  53.2175 152.4143 0001745  38.7749 266.0919 15.29812336 14320,6854.51,94.129,477.571,475.179,0.0
50822.0,STARLINK-3343,PAYLOAD,2022-03-31 14:00:01,15.29173726,0.0001822,53.2175,150.485,34.96,45.4176,-0.026961,-0.0071399,0.0,0 STARLINK-3343,1 50822U 22001V   22090.58334491 -.00713990  00000-0 -26961-1 0  9998,2 50822  53.2175 150.4850 0001822  34.9600  45.4176 15.29173726  3654,6856.418000000002,94.169,479.532,477.034,0.0
50822.0,STARLINK-3343,PAYLOAD,2022-03-31 22:00:00,15.28664941,0.0001672,53.2175,148.9393,40.3703,75.7274,-0.027446,-0.00723633,0.0,0 STARLINK-3343,1 50822U 22001V   22090.91667824 -.00723633  00000-0 -27446-1 0  9998,2 50822  53.2175 148.9393 0001672  40.3703  75.7274 15.28664941  3676,6857.939,94.2,480.951,478.658,0.0
50822.0,STARLINK-3343,PAYLOAD,2022-04-01 06:00:00,15.28155529,0.0001951,53.2176,147.3966,36.4727,114.7317,-0.027917,-0.00724573,0.0,0 STARLINK-3343,1 50822U 22001V   22091.25001157 -.00724573  00000-0 -27917-1 0  9994,2 50822  53.2176 147.3966 0001951  36.4727 114.7317 15.28155529 14488,6859.4630000000025,94.231,482.667,479.99,0.0
50822.0,STARLINK-3343,PAYLOAD,2022-04-01 14:00:01,15.27641626,0.0001836,53.2174,145.8567,41.1773,144.5217,-0.02808,-0.00717858,0.0,0 STARLINK-3343,1 50822U 22001V   22091.58334491 -.00717858  00000-0 -28080-1 0  9990,2 50822  53.2174 145.8567 0001836  41.1773 144.5217 15.27641626  3667,6861.002,94.263,484.126,481.607,0.0
50822.0,STARLINK-3343,PAYLOAD,2022-04-01 22:00:00,15.27134972,0.0001804,53.2175,144.3144,41.4763,178.1037,-0.028737,-0.00722992,0.0,0 STARLINK-3343,1 50822U 22001V   22091.91667824 -.00722992  00000-0 -28737-1 0  9990,2 50822  53.2175 144.3144 0001804  41.4763 178.1037 15.27134972  3642,6862.519,94.294,485.622,483.146,0.0
50822.0,STARLINK-3343,PAYLOAD,2022-04-02 14:00:01,15.26113004,0.0001753,53.2174,141.2391,41.3802,244.1873,-0.029489,-0.00719429,0.0,0 STARLINK-3343,1 50822U 22001V   22092.58335648 -.00719429  00000-0 -29489-1 0  9996,2 50822  53.2174 141.2391 0001753  41.3802 244.1873 15.26113004 14698,6865.581999999999,94.357,488.651,486.244,0.0
50822.0,STARLINK-3343,PAYLOAD,2022-04-02 22:00:01,15.25605068,0.0001745,53.2175,139.7005,36.5835,281.0274,-0.030117,-0.00723256,0.0,0 STARLINK-3343,1 50822U 22001V   22092.91668981 -.00723256  00000-0 -30117-1 0  9995,2 50822  53.2175 139.7005 0001745  36.5835 281.0274 15.25605068  3650,6867.106,94.389,490.169,487.773,0.0
50822.0,STARLINK-3343,PAYLOAD,2022-04-03 14:00:01,15.24584186,0.0001753,53.2174,136.6325,35.4878,344.3062,-0.030968,-0.00721282,0.0,0 STARLINK-3343,1 50822U 22001V   22093.58334491 -.00721282  00000-0 -30968-1 0  9996,2 50822  53.2174 136.6325 0001753  35.4878 344.3062 15.24584186 14841,6870.170999999999,94.452,493.241,490.832,0.0
50822.0,STARLINK-3343,PAYLOAD,2022-04-03 22:00:00,15.24074533,0.0001669,53.2175,135.0974,37.0825,12.9173,-0.031501,-0.0072246,0.0,0 STARLINK-3343,1 50822U 22001V   22093.91667824 -.00722460  00000-0 -31501-1 0  9995,2 50822  53.2175 135.0974 0001669  37.0825  12.9173 15.24074533  3648,6871.703,94.484,494.715,492.421,0.0
50822.0,STARLINK-3343,PAYLOAD,2022-04-04 14:00:01,15.23053298,0.0001735,53.2172,132.0365,39.8572,68.7126,-0.032347,-0.0071976,0.0,0 STARLINK-3343,1 50822U 22001V   22094.58334491 -.00719760  00000-0 -32347-1 0  9998,2 50822  53.2172 132.0365 0001735  39.8572  68.7126 15.23053298 14990,6874.774,94.547,497.832,495.446,0.0
50822.0,STARLINK-3343,PAYLOAD,2022-04-04 22:00:00,15.22544375,0.0002038,53.2173,130.5051,31.8633,105.0735,-0.032937,-0.00721769,0.0,0 STARLINK-3343,1 50822U 22001V   22094.91667824 -.00721769  00000-0 -32937-1 0  9991,2 50822  53.2173 130.5051 0002038  31.8633 105.0735 15.22544375  3666,6876.306,94.579,499.573,496.77,0.0
50822.0,STARLINK-3343,PAYLOAD,2022-04-05 14:00:01,15.21340176,0.0001764999999999,53.2166,127.4527,43.9865,148.0076,-0.021932,-0.00467209,0.0,0 STARLINK-3343,1 50822U 22001V   22095.58335648 -.00467209  00000-0 -21932-1 0  9990,2 50822  53.2166 127.4527 0001765  43.9865 148.0076 15.21340176 15141,6879.934,94.653,503.014,500.585,0.0
50822.0,STARLINK-3343,PAYLOAD,2022-04-05 20:00:01,15.21142601,0.000177,53.2175,126.3052,39.3878,82.396,-0.034387,-0.00722818,0.0,0 STARLINK-3343,1 50822U 22001V   22095.83334491 -.00722818  00000-0 -34387-1 0  9991,2 50822  53.2175 126.3052 0001770  39.3878  82.3960 15.21142601 15180,6880.53,94.666,503.61300000000006,501.177,0.0
50822.0,STARLINK-3343,PAYLOAD,2022-04-05 22:00:00,15.21014128,0.000175,53.2173,125.9233,44.8697,173.4891,-0.034416,-0.00720834,0.0,0 STARLINK-3343,1 50822U 22001V   22095.91667824 -.00720834  00000-0 -34416-1 0  9998,2 50822  53.2173 125.9233 0001750  44.8697 173.4891 15.21014128  3670,6880.917,94.674,503.987,501.578,0.0
50822.0,STARLINK-3343,PAYLOAD,2022-04-06 14:00:01,15.19995663,0.0001658,53.2171,122.8767,46.3384,223.236,-0.035575,-0.00722992,0.0,0 STARLINK-3343,1 50822U 22001V   22096.58334491 -.00722992  00000-0 -35575-1 0  9997,2 50822  53.2171 122.8767 0001658  46.3384 223.2360 15.19995663  3655,6883.991,94.737,506.997,504.714,0.0
50822.0,STARLINK-3343,PAYLOAD,2022-04-06 20:00:01,15.19612376,0.0001855,53.2174,121.7333,41.3879,156.7624,-0.035914,-0.00721853,0.0,0 STARLINK-3343,1 50822U 22001V   22096.83334491 -.00721853  00000-0 -35914-1 0  9997,2 50822  53.2174 121.7333 0001855  41.3879 156.7624 15.19612376 15336,6885.148,94.761,508.29,505.736,0.0
50822.0,STARLINK-3343,PAYLOAD,2022-04-06 22:00:00,15.19483462,0.000168,53.2173,121.3525,42.0031,252.2629,-0.03593,-0.0071959999999999,0.0,0 STARLINK-3343,1 50822U 22001V   22096.91667824 -.00719600  00000-0 -35930-1 0  9990,2 50822  53.2173 121.3525 0001680  42.0031 252.2629 15.19483462  3660,6885.538000000001,94.769,508.559,506.246,0.0
50822.0,STARLINK-3343,PAYLOAD,2022-04-07 14:00:01,15.18466532,0.0001561,53.2172,118.3129,45.2798,296.5244,-0.037261,-0.00724153,0.0,0 STARLINK-3343,1 50822U 22001V   22097.58334491 -.00724153  00000-0 -37261-1 0  9993,2 50822  53.2172 118.3129 0001561  45.2798 296.5244 15.18466532  3659,6888.611,94.833,511.552,509.401,0.0
50822.0,STARLINK-3343,PAYLOAD,2022-04-07 20:00:01,15.18082335,0.0001813,53.2175,117.1722,39.7674,229.2343,-0.037533,-0.00721575,0.0,0 STARLINK-3343,1 50822U 22001V   22097.83334491 -.00721575  00000-0 -37533-1 0  9998,2 50822  53.2175 117.1722 0001813  39.7674 229.2343 15.18082335 15492,6889.774,94.857,512.888,510.39,0.0
50822.0,STARLINK-3343,PAYLOAD,2022-04-07 22:00:00,15.17953186,0.0001746,53.2172,116.7923,35.9611,328.6968,-0.037545,-0.0071926999999999,0.0,0 STARLINK-3343,1 50822U 22001V   22097.91667824 -.00719270  00000-0 -37545-1 0  9998,2 50822  53.2172 116.7923 0001746  35.9611 328.6968 15.17953186  3631,6890.1640000000025,94.865,513.2330000000002,510.826,0.0
